STARLINK-4774           
1 56138U 23046AY  24051.82010102  .00001575  00000+0  13165-3 0  9990
2 56138  43.0020 249.6259 0001574 272.7298  87.3364 15.02531376 50251
STARLINK-5378           
1 56139U 23046AZ  24051.81121162  .00001027  00000+0  91048-4 0  9998
2 56139  43.0009 249.5613 0001216 274.8744  85.1959 15.02542780 50251
STARLINK-5375           
1 56140U 23046BA  24051.81787719  .00000807  00000+0  74818-4 0  9997
2 56140  43.0008 249.6121 0001397 275.0959  84.9723 15.02537989 49718
STARLINK-5377           
1 56141U 23046BB  24051.53753793  .00000733  00000+0  69351-4 0  9996
2 56141  43.0030 250.9502 0001378 280.0610  80.0077 15.02537597 50212
STARLINK-5376           
1 56142U 23046BC  24051.81454880  .00000772  00000+0  72199-4 0  9990
2 56142  43.0000 249.5861 0001090 266.9795  93.0923 15.02535527 50259
STARLINK-5016           
1 56143U 23046BD  24051.26607603  .00001050  00000+0  92769-4 0  9998
2 56143  43.0008 252.3496 0001174 272.7519  87.3189 15.02535936 49630
STARLINK-5374           
1 56144U 23046BE  24051.80788903  .00000397  00000+0  44452-4 0  9991
2 56144  43.0018 249.5362 0001247 272.6069  87.4630 15.02536924 49711
STARLINK-5370           
1 56145U 23046BF  24052.00001157  .01410668  00000+0  81982-1 0  9997
2 56145  43.0009 209.8931 0001566 278.4904 203.9069 15.08222059  5775
STARLINK-5111           
1 56146U 23046BG  24051.53420672  .00000848  00000+0  77846-4 0  9993
2 56146  43.0011 250.9212 0001260 271.5901  88.4797 15.02536180 49678
STARLINK-5140           
1 56147U 23046BH  24051.71010529  .00001291  00000+0  11063-3 0  9991
2 56147  43.0007 211.4438 0001347 270.5933  89.4755 15.02533917 50140
STARLINK-5089           
1 56148U 23046BJ  24051.71343367 -.00000113  00000+0  66785-5 0  9997
2 56148  43.0014 211.4707 0001092 269.8752  90.1965 15.02536002 50145
STARLINK-30107          
1 56287U 23056B   24052.09129413 -.00002372  00000+0 -16049-3 0  9994
2 56287  43.0026 312.6823 0001437 268.4918  91.5760 15.02555767 46969
STARLINK-30106          
1 56288U 23056C   24051.99152663  .00006075  00000+0  46412-3 0  9995
2 56288  43.0051 312.8146 0001158 282.9874  77.0839 15.02560779 46954
STARLINK-30095          
1 56289U 23056D   24051.35721743  .00000911  00000+0  82495-4 0  9992
2 56289  43.0025 290.4992 0001312 270.7775  89.2917 15.02538718 47167
STARLINK-30103          
1 56290U 23056E   24052.12115193 -.00000034  00000+0  12579-4 0  9999
2 56290  43.0031 312.0671 0001364 254.6433 105.4258 15.02544658 46988
STARLINK-30113          
1 56291U 23056F   24051.99485859  .00001266  00000+0  10874-3 0  9995
2 56291  43.0025 312.8344 0001322 266.3022  93.7670 15.02543546 46965
STARLINK-30098          
1 56292U 23056G   24051.45304760  .00000468  00000+0  49683-4 0  9992
2 56292  43.0037 315.6463 0001091 271.1465  88.9252 15.02538233 47476
STARLINK-30090          
1 56293U 23056H   24052.11127382  .00001165  00000+0  10125-3 0  9993
2 56293  43.0030 312.8240 0001537 268.8549  91.2117 15.02550357 46964
STARLINK-30049          
1 56294U 23056J   24051.44317168  .00012388  00000+0  93038-3 0  9995
2 56294  43.0005 316.3563 0001162 273.6062  86.4648 15.02541493 46867
STARLINK-30083          
1 56295U 23056K   24051.37053403  .00002927  00000+0  23163-3 0  9997
2 56295  43.0014 290.5825 0001212 273.4616  86.6088 15.02540936 47155
STARLINK-30089          
1 56296U 23056L   24051.96908623  .00003233  00000+0  25424-3 0  9999
2 56296  43.0013 274.2982 0001347 275.5493  84.5195 15.02545369 47390
STARLINK-30086          
1 56297U 23056M   24051.42319436  .00001174  00000+0  10199-3 0  9994
2 56297  43.0026 316.2065 0001235 270.9815  89.0886 15.02531672 47464
STARLINK-30109          
1 56298U 23056N   24052.02814522  .00002647  00000+0  21088-3 0  9993
2 56298  43.0036 313.0076 0001290 277.9721  82.0975 15.02548304 46963
STARLINK-30108          
1 56299U 23056P   24051.92874359 -.00004813  00000+0 -34136-3 0  9993
2 56299  42.9994 300.9851 0001131 283.8774  76.1943 15.02549026 47747
STARLINK-30104          
1 56300U 23056Q   24052.11449277  .00002145  00000+0  17375-3 0  9995
2 56300  43.0038 312.0145 0001472 250.0950 109.9734 15.02547006 46974
STARLINK-30101          
1 56301U 23056R   24051.41321161  .00007873  00000+0  59714-3 0  9995
2 56301  43.0022 316.1962 0000856 275.8931  84.1814 15.02539472 46879
STARLINK-30111          
1 56302U 23056S   24052.07131485  .00002526  00000+0  20192-3 0  9995
2 56302  43.0033 312.4712 0001645 259.9167 100.1490 15.02546680 46963
STARLINK-30097          
1 56303U 23056T   24051.96960950  .00057523  00000+0  18132-2 0  9997
2 56303  43.0008 280.2909 0029750 235.7261 124.0774 15.31654074 47331
STARLINK-30099          
1 56304U 23056U   24051.13730117  .00005405  00000+0  41492-3 0  9995
2 56304  43.0036 317.4905 0001448 265.4871  94.5806 15.02533500 46821
STARLINK-30094          
1 56305U 23056V   24051.45630802  .00004146  00000+0  32866-3 0  9997
2 56305  43.0064 315.5773 0001175 275.2004  84.8704 15.01727421 47533
STARLINK-30112          
1 56306U 23056W   24052.07464513 -.00000026  00000+0  13161-4 0  9993
2 56306  43.0023 312.4931 0001279 252.6662 107.4040 15.02555164 46971
STARLINK-6038           
1 56317U 23058A   24051.97077285 -.00000330  00000+0 -21106-4 0  9998
2 56317  97.6561  54.3943 0002228 146.2306 213.9060 15.01261099 45590
STARLINK-5954           
1 56318U 23058B   24051.96706689  .00000274  00000+0  25895-4 0  9999
2 56318  97.6573  54.4008 0002360 124.3726 235.7721 15.01264595 45597
STARLINK-6039           
1 56319U 23058C   24051.96521675  .00000279  00000+0  26323-4 0  9992
2 56319  97.6581  54.4048 0001657 106.0376 254.1030 15.01261098 45590
STARLINK-5988           
1 56320U 23058D   24051.97101821 -.00000041  00000+0  13884-5 0  9999
2 56320  97.6562  54.3941 0002154 150.9315 209.2029 15.01260487 45608
STARLINK-5876           
1 56321U 23058E   24051.95966421 -.00050769  00000+0 -39781-2 0  9997
2 56321  97.6575  54.4211 0001881  93.5428 266.6011 15.01244382 45432
STARLINK-6033           
1 56322U 23058F   24051.96892208  .00002249  00000+0  17960-3 0  9994
2 56322  97.6564  54.3978 0002390 143.4216 216.7172 15.01266191 45454
STARLINK-6035           
1 56323U 23058G   24051.96154474  .00013697  00000+0  10699-2 0  9991
2 56323  97.6593  54.4150 0002376  66.0676 294.0797 15.01223919 45457
STARLINK-6034           
1 56324U 23058H   24051.96336422  .00000761  00000+0  63865-4 0  9990
2 56324  97.6594  54.4100 0001620  88.7748 271.3662 15.01261862 45454
STARLINK-5981           
1 56325U 23058J   24051.95410561  .00000850  00000+0  70797-4 0  9998
2 56325  97.6578  54.4324 0001978  89.6141 270.5309 15.01261580 45948
STARLINK-5980           
1 56326U 23058K   24051.96363075 -.00002327  00000+0 -17671-3 0  9991
2 56326  97.6593  54.4092 0001615  89.5363 270.6047 15.01242262 45598
STARLINK-5997           
1 56327U 23058L   24052.08209575  .00001133  00000+0  92775-4 0  9991
2 56327  97.6571  54.5734 0002648  81.5982 278.5543 15.01265407 45476
STARLINK-5992           
1 56328U 23058M   24051.95595645  .00000712  00000+0  60037-4 0  9991
2 56328  97.6582  54.4286 0001827  90.4280 269.7154 15.01264736 45944
STARLINK-5984           
1 56329U 23058N   24051.95225414  .00000445  00000+0  39223-4 0  9992
2 56329  97.6576  54.4358 0002347  87.6762 272.4731 15.01263050 45949
STARLINK-5967           
1 56330U 23058P   24051.95619826  .00001144  00000+0  93673-4 0  9994
2 56330  97.6582  54.4283 0001411  93.1173 267.0213 15.01264594 45943
STARLINK-5991           
1 56331U 23058Q   24052.07999998  .00000939  00000+0  77656-4 0  9994
2 56331  97.6568  54.5764 0002819  78.8793 281.2748 15.01265333 45475
STARLINK-5093           
1 56332U 23058R   24051.95780525  .00001118  00000+0  91624-4 0  9996
2 56332  97.6580  54.4249 0001786  87.3367 272.8061 15.01266222 45945
STARLINK-5553           
1 56333U 23058S   24051.94484753  .00000481  00000+0  42009-4 0  9995
2 56333  97.6566  54.4479 0003490  69.3540 290.8058 15.01263771 45944
STARLINK-5548           
1 56334U 23058T   24052.01520119  .00000738  00000+0  62037-4 0  9990
2 56334  97.6571  54.5080 0002945  82.9829 277.1730 15.01265749 45464
STARLINK-5559           
1 56335U 23058U   24051.93954024 -.00000375  00000+0 -24588-4 0  9995
2 56335  97.6561  54.4552 0003337  54.8685 305.2852 15.01259652 45948
STARLINK-5562           
1 56336U 23058V   24052.01705451  .00000501  00000+0  43572-4 0  9997
2 56336  97.6574  54.5049 0002682  85.0302 275.1228 15.01264705 45463
STARLINK-5561           
1 56337U 23058W   24051.94139476 -.00000949  00000+0 -69314-4 0  9997
2 56337  97.6565  54.4529 0003004  58.5823 301.5694 15.01255421 45947
STARLINK-5554           
1 56338U 23058X   24051.94300072  .00000416  00000+0  37004-4 0  9998
2 56338  97.6563  54.4504 0003655  65.2177 294.9427 15.01261684 45945
STARLINK-5552           
1 56339U 23058Y   24051.93560663 -.00001293  00000+0 -96078-4 0  9994
2 56339  97.6560  54.4591 0002849  49.5719 310.5753 15.01250381 45949
STARLINK-5540           
1 56340U 23058Z   24051.94114740  .00000067  00000+0  98168-5 0  9997
2 56340  97.6558  54.4527 0003864  57.5971 302.5626 15.01259343 45941
STARLINK-5543           
1 56341U 23058AA  24051.93929489 -.00000331  00000+0 -21153-4 0  9996
2 56341  97.6560  54.4560 0003300  55.1450 305.0084 15.01261048 45944
STARLINK-5955           
1 56342U 23058AB  24052.00409412 -.00000223  00000+0 -12772-4 0  9992
2 56342  97.6562  54.5229 0003290  47.3244 312.8257 15.01261142 45462
STARLINK-5976           
1 56343U 23058AC  24051.93003359 -.00000293  00000+0 -18219-4 0  9993
2 56343  97.6558  54.4655 0002753  53.9747 306.1732 15.01259826 45947
STARLINK-5974           
1 56344U 23058AD  24052.00039036  .00000257  00000+0  24576-4 0  9995
2 56344  97.6557  54.5275 0003837  59.6108 300.5495 15.01261249 45467
